NORAD_CAT_ID,OBJECT_NAME,OBJECT_TYPE,EPOCH,MEAN_MOTION,ECCENTRICITY,INCLINATION,RA_OF_ASC_NODE,ARG_OF_PERICENTER,MEAN_ANOMALY,BSTAR,MEAN_MOTION_DOT,MEAN_MOTION_DDOT,TLE_LINE0,TLE_LINE1,TLE_LINE2,SEMIMAJOR_AXIS,PERIOD,APOGEE,PERIGEE,DECAYED
53917.0,STARLINK-5036,PAYLOAD,2023-11-10 21:21:35,15.08853223,0.0001285,53.216,169.0444,82.3451,277.7687,0.00031285,4.696e-05,0.0,0 STARLINK-5036,1 53917U 22119AH  23314.88999093  .00004696  00000-0  31285-3 0  9995,2 53917  53.2160 169.0444 0001285  82.3451 277.7687 15.08853223 63539,6917.84,95.437,540.594,538.816,0.0
53917.0,STARLINK-5036,PAYLOAD,2023-11-11 14:50:49,15.08845973,0.000135,53.2158,165.7744,82.5727,277.5419,0.00012865,1.76e-05,0.0,0 STARLINK-5036,1 53917U 22119AH  23315.61863225  .00001760  00000-0  12865-3 0  9996,2 53917  53.2158 165.7744 0001350  82.5727 277.5419 15.08845973 63649,6917.862,95.437,540.661,538.793,0.0
53917.0,STARLINK-5036,PAYLOAD,2023-11-11 19:36:59,15.08842181,0.0001322,53.2161,164.8841,78.8982,281.2159,9.1362e-06,-1.42e-06,0.0,0 STARLINK-5036,1 53917U 22119AH  23315.81735291 -.00000142  00000-0  91362-5 0  9994,2 53917  53.2161 164.8841 0001322  78.8982 281.2159 15.08842181 63259,6917.874,95.437,540.653,538.824,0.0
53917.0,STARLINK-5036,PAYLOAD,2023-11-11 21:12:22,15.08840911,0.0001233,53.2156,164.5855,85.8784,274.2349,1.1667e-05,-1.02e-06,0.0,0 STARLINK-5036,1 53917U 22119AH  23315.88359328 -.00000102  00000-0  11667-4 0  9999,2 53917  53.2156 164.5855 0001233  85.8784 274.2349 15.08840911 63683,6917.878,95.437,540.596,538.89,0.0
53917.0,STARLINK-5036,PAYLOAD,2023-11-12 06:44:41,15.0884441,0.0001326,53.216,162.8006,82.403,277.7112,6.9237e-05,8.14e-06,0.0,0 STARLINK-5036,1 53917U 22119AH  23316.28103172  .00000814  00000-0  69237-4 0  9993,2 53917  53.2160 162.8006 0001326  82.4030 277.7112 15.08844410 63748,6917.867,95.437,540.649,538.815,0.0
53917.0,STARLINK-5036,PAYLOAD,2023-11-12 21:03:09,15.08848991,0.0001311,53.2159,160.1254,90.2144,269.8998,8.4229e-05,1.053e-05,0.0,0 STARLINK-5036,1 53917U 22119AH  23316.87718772  .00001053  00000-0  84229-4 0  9990,2 53917  53.2159 160.1254 0001311  90.2144 269.8998 15.08848991 63831,6917.853,95.437,540.625,538.811,0.0
53917.0,STARLINK-5036,PAYLOAD,2023-11-12 22:38:32,15.08849395,0.0001341,53.2161,159.8279,89.9667,270.1479,0.00010555,1.393e-05,0.0,0 STARLINK-5036,1 53917U 22119AH  23316.94342742  .00001393  00000-0  10555-3 0  9995,2 53917  53.2161 159.8279 0001341  89.9667 270.1479 15.08849395 63427,6917.852,95.437,540.644,538.789,0.0
53917.0,STARLINK-5036,PAYLOAD,2023-11-13 12:57:00,15.08838323,0.0001307,53.2164,157.1533,85.0371,275.0771,0.00011878,1.603e-05,0.0,0 STARLINK-5036,1 53917U 22119AH  23317.53959277  .00001603  00000-0  11878-3 0  9991,2 53917  53.2164 157.1533 0001307  85.0371 275.0771 15.08838323 63939,6917.886,95.438,540.655,538.846,0.0
53917.0,STARLINK-5036,PAYLOAD,2023-11-13 22:29:19,15.08836105,0.0001297,53.2162,155.3681,87.5847,272.5293,2.1839e-05,6e-07,0.0,0 STARLINK-5036,1 53917U 22119AH  23317.93703443  .00000060  00000-0  21839-4 0  9992,2 53917  53.2162 155.3681 0001297  87.5847 272.5293 15.08836105 63997,6917.892,95.438,540.655,538.86,0.0
53917.0,STARLINK-5036,PAYLOAD,2023-11-14 19:09:20,15.08836164,0.000139,53.2154,151.5023,86.2523,273.8628,1.8775e-05,1.1e-07,0.0,0 STARLINK-5036,1 53917U 22119AH  23318.79815721  .00000011  00000-0  18775-4 0  9991,2 53917  53.2154 151.5023 0001390  86.2523 273.8628 15.08836164 63707,6917.892,95.438,540.719,538.796,0.0
53917.0,STARLINK-5036,PAYLOAD,2023-11-15 12:38:35,15.08839583,0.0001631,53.2161,148.2295,86.3125,273.8054,0.00013139,1.804e-05,0.0,0 STARLINK-5036,1 53917U 22119AH  23319.52679704  .00001804  00000-0  13139-3 0  9991,2 53917  53.2161 148.2295 0001631  86.3125 273.8054 15.08839583 64236,6917.882,95.438,540.875,538.618,0.0
53917.0,STARLINK-5036,PAYLOAD,2023-11-15 22:10:53,15.08842597,0.0001507,53.2155,146.4462,88.0607,272.0558,0.000157,2.212e-05,0.0,0 STARLINK-5036,1 53917U 22119AH  23319.92423481  .00002212  00000-0  15700-3 0  9994,2 53917  53.2155 146.4462 0001507  88.0607 272.0558 15.08842597 64296,6917.872,95.437,540.78,538.695,0.0
53917.0,STARLINK-5036,PAYLOAD,2023-11-16 22:01:41,15.08841631,0.0001442,53.2155,141.9846,91.7771,268.3386,7.9326e-05,9.75e-06,0.0,0 STARLINK-5036,1 53917U 22119AH  23320.91783608  .00000975  00000-0  79326-4 0  9994,2 53917  53.2155 141.9846 0001442  91.7771 268.3386 15.08841631 64445,6917.875,95.437,540.738,538.743,0.0
53917.0,STARLINK-5036,PAYLOAD,2023-11-17 12:20:09,15.08840015,0.0001431,53.2152,139.3079,91.4168,268.6988,3.0065e-05,1.91e-06,0.0,0 STARLINK-5036,1 53917U 22119AH  23321.51399821  .00000191  00000-0  30065-4 0  9998,2 53917  53.2152 139.3079 0001431  91.4168 268.6988 15.08840015 64532,6917.88,95.438,540.735,538.755,0.0
53917.0,STARLINK-5036,PAYLOAD,2023-11-17 21:52:28,15.08837978,0.0001405,53.2159,137.5237,91.6025,268.5128,-4.9558e-06,-3.67e-06,0.0,0 STARLINK-5036,1 53917U 22119AH  23321.91143965 -.00000367  00000-0 -49558-5 0  9993,2 53917  53.2159 137.5237 0001405  91.6025 268.5128 15.08837978 64595,6917.887,95.438,540.724,538.78,0.0
53917.0,STARLINK-5036,PAYLOAD,2023-11-18 12:10:56,15.08840605,0.0001351,53.2168,134.8474,91.0884,269.0263,6.2671e-05,7.1e-06,0.0,0 STARLINK-5036,1 53917U 22119AH  23322.50759658  .00000710  00000-0  62671-4 0  9991,2 53917  53.2168 134.8474 0001351  91.0884 269.0263 15.08840605 64682,6917.879,95.438,540.678,538.809,0.0
53917.0,STARLINK-5036,PAYLOAD,2023-11-18 18:32:28,15.0884266,0.0001354,53.2159,133.6583,90.6269,269.4878,7.5394e-05,9.12e-06,0.0,0 STARLINK-5036,1 53917U 22119AH  23322.77255468  .00000912  00000-0  75394-4 0  9990,2 53917  53.2159 133.6583 0001354  90.6269 269.4878 15.08842660 64729,6917.872,95.437,540.674,538.801,0.0
53917.0,STARLINK-5036,PAYLOAD,2023-11-19 04:04:47,15.08839702,0.0001287,53.215,131.8738,88.5404,271.5735,5.3286e-05,5.6e-06,0.0,0 STARLINK-5036,1 53917U 22119AH  23323.16999634  .00000560  00000-0  53286-4 0  9999,2 53917  53.2150 131.8738 0001287  88.5404 271.5735 15.08839702 64363,6917.881,95.438,540.637,538.856,0.0
53917.0,STARLINK-5036,PAYLOAD,2023-11-19 12:01:43,15.08837647,0.0001349,53.2166,130.3885,91.2538,268.8609,7.6473e-05,9.29e-06,0.0,0 STARLINK-5036,1 53917U 22119AH  23323.50119859  .00000929  00000-0  76473-4 0  9992,2 53917  53.2166 130.3885 0001349  91.2538 268.8609 15.08837647 64832,6917.888,95.438,540.686,538.819,0.0
53917.0,STARLINK-5036,PAYLOAD,2023-11-19 18:23:16,15.08839582,0.0001347,53.2178,129.1992,90.6349,269.4797,8.1062e-05,1.002e-05,0.0,0 STARLINK-5036,1 53917U 22119AH  23323.76615759  .00001002  00000-0  81062-4 0  9993,2 53917  53.2178 129.1992 0001347  90.6349 269.4797 15.08839582 64870,6917.882,95.438,540.679,538.815,0.0
53917.0,STARLINK-5036,PAYLOAD,2023-11-20 10:17:07,15.08838537,0.0001365,53.2177,126.2259,90.8016,269.3132,4.9385e-05,4.98e-06,0.0,0 STARLINK-5036,1 53917U 22119AH  23324.42855977  .00000498  00000-0  49385-4 0  9995,2 53917  53.2177 126.2259 0001365  90.8016 269.3132 15.08838537 64552,6917.885,95.438,540.694,538.806,0.0
53917.0,STARLINK-5036,PAYLOAD,2023-11-20 11:52:30,15.08837535,0.0001378,53.2182,125.9284,89.9602,270.1548,1.0807e-05,-1.16e-06,0.0,0 STARLINK-5036,1 53917U 22119AH  23324.49480187 -.00000116  00000-0  10807-4 0  9994,2 53917  53.2182 125.9284 0001378  89.9602 270.1548 15.08837535 64981,6917.888,95.438,540.706,538.8,0.0
53917.0,STARLINK-5036,PAYLOAD,2023-11-20 18:14:03,15.08839094,0.0001388,53.2182,124.739,89.6508,270.4644,2.0136e-05,3.3e-07,0.0,0 STARLINK-5036,1 53917U 22119AH  23324.75976073  .00000033  00000-0  20136-4 0  9990,2 53917  53.2182 124.7390 0001388  89.6508 270.4644 15.08839094 65027,6917.883,95.438,540.708,538.788,0.0
53917.0,STARLINK-5036,PAYLOAD,2023-11-21 10:07:54,15.08840589,0.0001391,53.2185,121.7653,89.6538,270.4614,5.8124e-05,6.37e-06,0.0,0 STARLINK-5036,1 53917U 22119AH  23325.42215943  .00000637  00000-0  58124-4 0  9995,2 53917  53.2185 121.7653 0001391  89.6538 270.4614 15.08840589 65125,6917.879,95.438,540.706,538.781,0.0
53917.0,STARLINK-5036,PAYLOAD,2023-11-21 18:04:49,15.08845101,0.0001398,53.2184,120.2785,89.1421,270.9731,8.4994e-05,1.065e-05,0.0,0 STARLINK-5036,1 53917U 22119AH  23325.75335604  .00001065  00000-0  84994-4 0  9998,2 53917  53.2184 120.2785 0001398  89.1421 270.9731 15.08845101 64755,6917.865,95.437,540.697,538.763,0.0
53917.0,STARLINK-5036,PAYLOAD,2023-11-22 14:44:50,15.08844805,0.0001413,53.2184,116.4128,88.7004,271.415,0.0001225,1.662e-05,0.0,0 STARLINK-5036,1 53917U 22119AH  23326.61447514  .00001662  00000-0  12250-3 0  9996,2 53917  53.2184 116.4128 0001413  88.7004 271.4150 15.08844805 65306,6917.866,95.437,540.708,538.753,0.0
53917.0,STARLINK-5036,PAYLOAD,2023-11-22 17:55:36,15.08850127,0.000144,53.2184,115.8179,88.1751,271.9406,0.00015525,2.184e-05,0.0,0 STARLINK-5036,1 53917U 22119AH  23326.74695089  .00002184  00000-0  15525-3 0  9990,2 53917  53.2184 115.8179 0001440  88.1751 271.9406 15.08850127 65323,6917.849,95.437,540.711,538.718,0.0
53917.0,STARLINK-5036,PAYLOAD,2023-11-23 14:35:38,15.08838779,0.0001461,53.2185,111.9527,90.084,270.0319,2.1633e-05,5.6e-07,0.0,0 STARLINK-5036,1 53917U 22119AH  23327.60808246  .00000056  00000-0  21633-4 0  9991,2 53917  53.2185 111.9527 0001461  90.0840 270.0319 15.08838779 65458,6917.884,95.438,540.76,538.738,0.0
53917.0,STARLINK-5036,PAYLOAD,2023-11-23 19:21:47,15.08841279,0.000152,53.2175,111.0604,83.878,276.2386,6.7823e-05,7.92e-06,0.0,0 STARLINK-5036,1 53917U 22119AH  23327.80680026  .00000792  00000-0  67823-4 0  9995,2 53917  53.2175 111.0604 0001520  83.8780 276.2386 15.08841279 65061,6917.876,95.437,540.793,538.69,0.0
53917.0,STARLINK-5036,PAYLOAD,2023-11-24 09:40:16,15.08835879,0.0001479,53.2167,108.38,99.7145,260.4014,-7.7406e-05,-1.52e-05,0.0,0 STARLINK-5036,1 53917U 22119AH  23328.40296465 -.00001520  00000-0 -77406-4 0  9992,2 53917  53.2167 108.3800 0001479  99.7145 260.4014 15.08835879 65155,6917.893,95.438,540.781,538.735,0.0
